{
 "generated_at": "2026-07-03T08:09:24Z",
 "sources": [
  {
   "name": "CelesTrak",
   "url": "https://celestrak.org/NORAD/elements/",
   "license": "frei verfügbar; Attribution. Ursprünglich USSPACECOM/Space-Track."
  },
  {
   "name": "GCAT (J. McDowell, planet4589.org)",
   "url": "https://planet4589.org/space/gcat/",
   "license": "CC-BY 4.0"
  }
 ],
 "satellites": [
  {
   "norad": 43010,
   "name": "FENGYUN 3D",
   "intl": "2017-072A",
   "group": "weather",
   "gcat": {
    "class": "C",
    "category": "MET",
    "owner": "NSMC",
    "state": "CN"
   },
   "omm": {
    "OBJECT_NAME": "FENGYUN 3D",
    "OBJECT_ID": "2017-072A",
    "EPOCH": "2026-07-02T19:01:33.325248",
    "MEAN_MOTION": 14.19740968,
    "ECCENTRICITY": 0.0002156,
    "INCLINATION": 99.0132,
    "RA_OF_ASC_NODE": 158.4976,
    "ARG_OF_PERICENTER": 37.0736,
    "MEAN_ANOMALY": 323.0588,
    "EPHEMERIS_TYPE": 0,
    "CLASSIFICATION_TYPE": "U",
    "NORAD_CAT_ID": 43010,
    "ELEMENT_SET_NO": 999,
    "REV_AT_EPOCH": 44720,
    "BSTAR": -0.00012096,
    "MEAN_MOTION_DOT": -0.00000302,
    "MEAN_MOTION_DDOT": 0
   }
  },
  {
   "norad": 49008,
   "name": "FENGYUN 3E",
   "intl": "2021-062A",
   "group": "weather",
   "gcat": {
    "class": "C",
    "category": "MET",
    "owner": "NSMC",
    "state": "CN"
   },
   "omm": {
    "OBJECT_NAME": "FENGYUN 3E",
    "OBJECT_ID": "2021-062A",
    "EPOCH": "2026-07-02T18:35:49.793568",
    "MEAN_MOTION": 14.19905723,
    "ECCENTRICITY": 0.0002665,
    "INCLINATION": 98.749,
    "RA_OF_ASC_NODE": 187.0089,
    "ARG_OF_PERICENTER": 60.9337,
    "MEAN_ANOMALY": 299.2106,
    "EPHEMERIS_TYPE": 0,
    "CLASSIFICATION_TYPE": "U",
    "NORAD_CAT_ID": 49008,
    "ELEMENT_SET_NO": 999,
    "REV_AT_EPOCH": 25879,
    "BSTAR": 0.000078678,
    "MEAN_MOTION_DOT": 0.00000123,
    "MEAN_MOTION_DDOT": 0
   }
  },
  {
   "norad": 57490,
   "name": "FENGYUN 3F",
   "intl": "2023-111A",
   "group": "weather",
   "gcat": {
    "class": "C",
    "category": "MET",
    "owner": "NSMC",
    "state": "CN"
   },
   "omm": {
    "OBJECT_NAME": "FENGYUN 3F",
    "OBJECT_ID": "2023-111A",
    "EPOCH": "2026-07-02T18:12:08.306208",
    "MEAN_MOTION": 14.19941741,
    "ECCENTRICITY": 0.0001482,
    "INCLINATION": 98.6831,
    "RA_OF_ASC_NODE": 253.4767,
    "ARG_OF_PERICENTER": 82.6304,
    "MEAN_ANOMALY": 277.5041,
    "EPHEMERIS_TYPE": 0,
    "CLASSIFICATION_TYPE": "U",
    "NORAD_CAT_ID": 57490,
    "ELEMENT_SET_NO": 999,
    "REV_AT_EPOCH": 15107,
    "BSTAR": 0.000048024,
    "MEAN_MOTION_DOT": 5.9e-7,
    "MEAN_MOTION_DDOT": 0
   }
  },
  {
   "norad": 56232,
   "name": "FENGYUN 3G",
   "intl": "2023-055A",
   "group": "weather",
   "gcat": {
    "class": "C",
    "category": "MET",
    "owner": "NSMC",
    "state": "CN"
   },
   "omm": {
    "OBJECT_NAME": "FENGYUN 3G",
    "OBJECT_ID": "2023-055A",
    "EPOCH": "2026-07-02T19:21:18.023040",
    "MEAN_MOTION": 15.53321812,
    "ECCENTRICITY": 0.0007319,
    "INCLINATION": 49.9922,
    "RA_OF_ASC_NODE": 265.5037,
    "ARG_OF_PERICENTER": 1.7685,
    "MEAN_ANOMALY": 358.3307,
    "EPHEMERIS_TYPE": 0,
    "CLASSIFICATION_TYPE": "U",
    "NORAD_CAT_ID": 56232,
    "ELEMENT_SET_NO": 999,
    "REV_AT_EPOCH": 18243,
    "BSTAR": 0.00036147,
    "MEAN_MOTION_DOT": 0.00022887,
    "MEAN_MOTION_DDOT": 0
   }
  },
  {
   "norad": 65815,
   "name": "FENGYUN 3H",
   "intl": "2025-219A",
   "group": "weather",
   "gcat": {
    "class": "C",
    "category": "MET",
    "owner": "NSMC",
    "state": "CN"
   },
   "omm": {
    "OBJECT_NAME": "FENGYUN 3H",
    "OBJECT_ID": "2025-219A",
    "EPOCH": "2026-07-02T19:48:41.128992",
    "MEAN_MOTION": 14.19923114,
    "ECCENTRICITY": 0.0001387,
    "INCLINATION": 98.677,
    "RA_OF_ASC_NODE": 124.2907,
    "ARG_OF_PERICENTER": 65.8877,
    "MEAN_ANOMALY": 294.2444,
    "EPHEMERIS_TYPE": 0,
    "CLASSIFICATION_TYPE": "U",
    "NORAD_CAT_ID": 65815,
    "ELEMENT_SET_NO": 999,
    "REV_AT_EPOCH": 3960,
    "BSTAR": 0.000049611,
    "MEAN_MOTION_DOT": 6.2e-7,
    "MEAN_MOTION_DDOT": 0
   }
  },
  {
   "norad": 41882,
   "name": "FENGYUN 4A",
   "intl": "2016-077A",
   "group": "weather",
   "gcat": {
    "class": "C",
    "category": "MET",
    "owner": "NSMC",
    "state": "CN"
   },
   "omm": {
    "OBJECT_NAME": "FENGYUN 4A",
    "OBJECT_ID": "2016-077A",
    "EPOCH": "2026-07-02T19:51:57.720096",
    "MEAN_MOTION": 1.00275999,
    "ECCENTRICITY": 0.0007921,
    "INCLINATION": 2.3604,
    "RA_OF_ASC_NODE": 80.1191,
    "ARG_OF_PERICENTER": 158.0007,
    "MEAN_ANOMALY": 104.4703,
    "EPHEMERIS_TYPE": 0,
    "CLASSIFICATION_TYPE": "U",
    "NORAD_CAT_ID": 41882,
    "ELEMENT_SET_NO": 999,
    "REV_AT_EPOCH": 3508,
    "BSTAR": 0,
    "MEAN_MOTION_DOT": -0.00000347,
    "MEAN_MOTION_DDOT": 0
   }
  },
  {
   "norad": 42920,
   "name": "FORMOSAT-5",
   "intl": "2017-049A",
   "group": "resource",
   "gcat": {
    "class": "C",
    "category": "IMG/SCI",
    "owner": "NSPO",
    "state": "TW"
   },
   "omm": {
    "OBJECT_NAME": "FORMOSAT-5",
    "OBJECT_ID": "2017-049A",
    "EPOCH": "2026-07-02T18:38:10.071744",
    "MEAN_MOTION": 14.50904612,
    "ECCENTRICITY": 0.0012137,
    "INCLINATION": 98.2251,
    "RA_OF_ASC_NODE": 258.7398,
    "ARG_OF_PERICENTER": 40.685,
    "MEAN_ANOMALY": 319.525,
    "EPHEMERIS_TYPE": 0,
    "CLASSIFICATION_TYPE": "U",
    "NORAD_CAT_ID": 42920,
    "ELEMENT_SET_NO": 999,
    "REV_AT_EPOCH": 46893,
    "BSTAR": 0.000062165,
    "MEAN_MOTION_DOT": 0.00000202,
    "MEAN_MOTION_DDOT": 0
   }
  },
  {
   "norad": 39150,
   "name": "GAOFEN-1",
   "intl": "2013-018A",
   "group": "resource",
   "gcat": {
    "class": "C",
    "category": "IMG",
    "owner": "CNSAS",
    "state": "CN"
   },
   "omm": {
    "OBJECT_NAME": "GAOFEN-1",
    "OBJECT_ID": "2013-018A",
    "EPOCH": "2026-07-02T18:50:25.164672",
    "MEAN_MOTION": 14.76507525,
    "ECCENTRICITY": 0.0015993,
    "INCLINATION": 97.9093,
    "RA_OF_ASC_NODE": 255.536,
    "ARG_OF_PERICENTER": 212.2055,
    "MEAN_ANOMALY": 147.818,
    "EPHEMERIS_TYPE": 0,
    "CLASSIFICATION_TYPE": "U",
    "NORAD_CAT_ID": 39150,
    "ELEMENT_SET_NO": 999,
    "REV_AT_EPOCH": 71054,
    "BSTAR": 0.00012141,
    "MEAN_MOTION_DOT": 0.00000797,
    "MEAN_MOTION_DDOT": 0
   }
  },
  {
   "norad": 43259,
   "name": "GAOFEN-1 02",
   "intl": "2018-031A",
   "group": "resource",
   "gcat": {
    "class": "C",
    "category": "IMG",
    "owner": "CNSAS",
    "state": "CN"
   },
   "omm": {
    "OBJECT_NAME": "GAOFEN-1 02",
    "OBJECT_ID": "2018-031A",
    "EPOCH": "2026-07-02T18:00:33.773760",
    "MEAN_MOTION": 14.76458699,
    "ECCENTRICITY": 0.0002309,
    "INCLINATION": 98.0521,
    "RA_OF_ASC_NODE": 246.2333,
    "ARG_OF_PERICENTER": 347.6115,
    "MEAN_ANOMALY": 12.5037,
    "EPHEMERIS_TYPE": 0,
    "CLASSIFICATION_TYPE": "U",
    "NORAD_CAT_ID": 43259,
    "ELEMENT_SET_NO": 999,
    "REV_AT_EPOCH": 44499,
    "BSTAR": 0.00017384,
    "MEAN_MOTION_DOT": 0.00001158,
    "MEAN_MOTION_DDOT": 0
   }
  },
  {
   "norad": 43260,
   "name": "GAOFEN-1 03",
   "intl": "2018-031B",
   "group": "resource",
   "gcat": {
    "class": "C",
    "category": "IMG",
    "owner": "CNSAS",
    "state": "CN"
   },
   "omm": {
    "OBJECT_NAME": "GAOFEN-1 03",
    "OBJECT_ID": "2018-031B",
    "EPOCH": "2026-07-02T19:06:30.059136",
    "MEAN_MOTION": 14.76448295,
    "ECCENTRICITY": 0.0003313,
    "INCLINATION": 98.051,
    "RA_OF_ASC_NODE": 246.1359,
    "ARG_OF_PERICENTER": 46.4771,
    "MEAN_ANOMALY": 313.6714,
    "EPHEMERIS_TYPE": 0,
    "CLASSIFICATION_TYPE": "U",
    "NORAD_CAT_ID": 43260,
    "ELEMENT_SET_NO": 999,
    "REV_AT_EPOCH": 44499,
    "BSTAR": 0.00012944,
    "MEAN_MOTION_DOT": 0.00000849,
    "MEAN_MOTION_DDOT": 0
   }
  }
 ]
}
